NORAD_CAT_ID,OBJECT_NAME,OBJECT_TYPE,EPOCH,MEAN_MOTION,ECCENTRICITY,INCLINATION,RA_OF_ASC_NODE,ARG_OF_PERICENTER,MEAN_ANOMALY,BSTAR,MEAN_MOTION_DOT,MEAN_MOTION_DDOT,TLE_LINE0,TLE_LINE1,TLE_LINE2,SEMIMAJOR_AXIS,PERIOD,APOGEE,PERIGEE,DECAYED
55637.0,STARLINK-5062,PAYLOAD,2023-10-20 21:44:45,14.98326748,0.0003045,70.0011,220.1209,274.6475,85.4336,-0.00017979,-2.237e-05,0.0,0 STARLINK-5062,1 55637U 23021K   23293.90608256 -.00002237  00000-0 -17979-3 0  9991,2 55637  70.0011 220.1209 0003045 274.6475  85.4336 14.98326748 38350,6950.203,96.107,574.184,569.952,0.0
55637.0,STARLINK-5062,PAYLOAD,2023-10-21 02:33:09,14.98337569,0.0002889,70.0009,219.6164,271.3893,88.6935,-0.00025802,-3.171e-05,0.0,0 STARLINK-5062,1 55637U 23021K   23294.10635844 -.00003171  00000-0 -25802-3 0  9999,2 55637  70.0009 219.6164 0002889 271.3893  88.6935 14.98337569 38086,6950.169,96.107,574.042,570.027,0.0
55637.0,STARLINK-5062,PAYLOAD,2023-10-21 12:09:56,14.98349447,0.0002833,70.0014,218.6067,274.1929,85.8906,-0.00025363,-3.119e-05,0.0,0 STARLINK-5062,1 55637U 23021K   23294.50690826 -.00003119  00000-0 -25363-3 0  9998,2 55637  70.0014 218.6067 0002833 274.1929  85.8906 14.98349447 38145,6950.133,96.106,573.967,570.029,0.0
55637.0,STARLINK-5062,PAYLOAD,2023-10-21 21:46:44,14.98333213,0.0002587,70.0013,217.5968,267.8749,92.2113,0.00026293,3.046e-05,0.0,0 STARLINK-5062,1 55637U 23021K   23294.90746267  .00003046  00000-0  26293-3 0  9993,2 55637  70.0013 217.5968 0002587 267.8749  92.2113 14.98333213 38503,6950.183,96.107,573.846,570.25,0.0
55637.0,STARLINK-5062,PAYLOAD,2023-10-22 12:11:57,14.98338917,0.0002391,70.0017,216.0815,274.8247,85.2639,-6.7978e-05,-9.04e-06,0.0,0 STARLINK-5062,1 55637U 23021K   23295.50830622 -.00000904  00000-0 -67978-4 0  9997,2 55637  70.0017 216.0815 0002391 274.8247  85.2639 14.98338917 38293,6950.165,96.106,573.692,570.369,0.0
55637.0,STARLINK-5062,PAYLOAD,2023-10-22 20:12:39,14.98314112,0.0002771,70.0013,215.2411,265.5986,94.4856,-0.00013307,-1.68e-05,0.0,0 STARLINK-5062,1 55637U 23021K   23295.84212373 -.00001680  00000-0 -13307-3 0  9999,2 55637  70.0013 215.2411 0002771 265.5986  94.4856 14.98314112 38341,6950.242,96.108,574.033,570.181,0.0
55637.0,STARLINK-5062,PAYLOAD,2023-10-22 21:48:47,14.98314534,0.0002737,70.0013,215.0729,264.6334,95.4513,-0.00012739,-1.612e-05,0.0,0 STARLINK-5062,1 55637U 23021K   23295.90888398 -.00001612  00000-0 -12739-3 0  9995,2 55637  70.0013 215.0729 0002737 264.6334  95.4513 14.98314534 38653,6950.241,96.108,574.008,570.203,0.0
55637.0,STARLINK-5062,PAYLOAD,2023-10-23 04:13:22,14.98281622,0.0002494,70.0021,214.4001,285.3436,74.7448,-0.00042929,-5.205e-05,0.0,0 STARLINK-5062,1 55637U 23021K   23296.17595502 -.00005205  00000-0 -42929-3 0  9993,2 55637  70.0021 214.4001 0002494 285.3436  74.7448 14.98281622 38390,6950.342,96.11,573.941,570.474,0.0
55637.0,STARLINK-5062,PAYLOAD,2023-10-23 20:14:39,14.98332115,0.0002616,70.001,212.7173,260.3965,99.6899,-0.00013843,-1.744e-05,0.0,0 STARLINK-5062,1 55637U 23021K   23296.84351651 -.00001744  00000-0 -13843-3 0  9999,2 55637  70.0010 212.7173 0002616 260.3965  99.6899 14.98332115 38496,6950.186,96.107,573.87,570.233,0.0
55637.0,STARLINK-5062,PAYLOAD,2023-10-23 21:50:47,14.9833273,0.0002601,70.0011,212.5489,259.8363,100.2503,-0.00013145,-1.661e-05,0.0,0 STARLINK-5062,1 55637U 23021K   23296.91027584 -.00001661  00000-0 -13145-3 0  9995,2 55637  70.0011 212.5489 0002601 259.8363 100.2503 14.98332730 38803,6950.184,96.107,573.857,570.242,0.0
55637.0,STARLINK-5062,PAYLOAD,2023-10-24 12:15:59,14.98337356,0.0002692,70.0012,211.0325,261.2566,98.8288,-0.0001201,-1.526e-05,0.0,0 STARLINK-5062,1 55637U 23021K   23297.51111084 -.00001526  00000-0 -12010-3 0  9991,2 55637  70.0012 211.0325 0002692 261.2566  98.8288 14.98337356 38899,6950.17,96.107,573.906,570.164,0.0
55637.0,STARLINK-5062,PAYLOAD,2023-10-25 21:54:49,14.98330294,0.000259,70.001,207.4986,257.6929,102.394,-1.0732e-05,-2.21e-06,0.0,0 STARLINK-5062,1 55637U 23021K   23298.91307396 -.00000221  00000-0 -10732-4 0  9990,2 55637  70.0010 207.4986 0002590 257.6929 102.3940 14.98330294 38809,6950.192,96.107,573.857,570.257,0.0
55637.0,STARLINK-5062,PAYLOAD,2023-10-26 04:19:21,14.98333257,0.0002634,70.0009,206.8254,260.7902,99.2959,2.5934e-05,2.17e-06,0.0,0 STARLINK-5062,1 55637U 23021K   23299.18011076  .00000217  00000-0  25934-4 0  9990,2 55637  70.0009 206.8254 0002634 260.7902  99.2959 14.98333257 39147,6950.183,96.107,573.878,570.217,0.0
55637.0,STARLINK-5062,PAYLOAD,2023-10-26 21:56:50,14.98316924,0.0002676,70.0013,204.9755,262.2128,97.8727,0.00027322,3.167e-05,0.0,0 STARLINK-5062,1 55637U 23021K   23299.91447372  .00003167  00000-0  27322-3 0  9992,2 55637  70.0013 204.9755 0002676 262.2128  97.8727 14.98316924 39251,6950.233,96.108,573.958,570.238,0.0
55637.0,STARLINK-5062,PAYLOAD,2023-10-27 02:45:13,14.98337425,0.000251,70.0014,204.4715,253.7367,106.3516,4.4974e-05,4.44e-06,0.0,0 STARLINK-5062,1 55637U 23021K   23300.11474511  .00000444  00000-0  44974-4 0  9990,2 55637  70.0014 204.4715 0002510 253.7367 106.3516 14.98337425 38980,6950.17,96.107,573.779,570.29,0.0
55637.0,STARLINK-5062,PAYLOAD,2023-10-27 10:45:54,14.98329471,0.000229,70.002,203.6265,277.5946,82.4953,2.6223e-05,2.2e-06,0.0,0 STARLINK-5062,1 55637U 23021K   23300.44855001  .00000220  00000-0  26223-4 0  9992,2 55637  70.0020 203.6265 0002290 277.5946  82.4953 14.98329471 39038,6950.195,96.107,573.651,570.468,0.0
55637.0,STARLINK-5062,PAYLOAD,2023-10-27 21:58:51,14.98325567,0.0001757,70.0028,202.449,267.8184,92.2774,2.7201e-05,2.32e-06,0.0,0 STARLINK-5062,1 55637U 23021K   23300.91587339  .00000232  00000-0  27201-4 0  9990,2 55637  70.0028 202.4490 0001757 267.8184  92.2774 14.98325567 39409,6950.207,96.107,573.293,570.85,0.0
55637.0,STARLINK-5062,PAYLOAD,2023-10-28 10:47:56,14.98328779,0.0002359,70.0018,201.1044,280.2214,79.8679,-4.7644e-05,-6.61e-06,0.0,0 STARLINK-5062,1 55637U 23021K   23301.44995430 -.00000661  00000-0 -47644-4 0  9995,2 55637  70.0018 201.1044 0002359 280.2214  79.8679 14.98328779 39189,6950.197,96.107,573.701,570.422,0.0
55637.0,STARLINK-5062,PAYLOAD,2023-10-28 22:00:52,14.98330628,0.0002246,70.0006,199.9246,241.4473,118.6461,-2.553e-05,-3.97e-06,0.0,0 STARLINK-5062,1 55637U 23021K   23301.91727038 -.00000397  00000-0 -25530-4 0  9990,2 55637  70.0006 199.9246 0002246 241.4473 118.6461 14.98330628 39553,6950.191,96.107,573.617,570.495,0.0
55637.0,STARLINK-5062,PAYLOAD,2023-10-29 10:49:56,14.98328713,0.0002373,70.0018,198.5772,291.671,68.4196,-2.9363e-05,-4.43e-06,0.0,0 STARLINK-5062,1 55637U 23021K   23302.45135343 -.00000443  00000-0 -29363-4 0  9992,2 55637  70.0018 198.5772 0002373 291.6710  68.4196 14.98328713 39332,6950.197,96.107,573.711,570.413,0.0
55637.0,STARLINK-5062,PAYLOAD,2023-10-29 22:02:53,14.98322281,0.0002158,70.0016,197.3995,252.7922,107.3001,-2.255e-05,-3.62e-06,0.0,0 STARLINK-5062,1 55637U 23021K   23302.91867517 -.00000362  00000-0 -22550-4 0  9999,2 55637  70.0016 197.3995 0002158 252.7922 107.3001 14.98322281 39701,6950.217,96.107,573.582,570.582,0.0
55637.0,STARLINK-5062,PAYLOAD,2023-10-30 10:51:57,14.98325417,0.0002488,70.0016,196.0527,272.0609,88.0265,-2.1163e-06,-1.18e-06,0.0,0 STARLINK-5062,1 55637U 23021K   23303.45275455 -.00000118  00000-0 -21163-5 0  9992,2 55637  70.0016 196.0527 0002488 272.0609  88.0265 14.98325417 39487,6950.207,96.107,573.801,570.343,0.0
55637.0,STARLINK-5062,PAYLOAD,2023-10-30 22:04:54,14.98326124,0.0002469,70.0012,194.8748,260.5639,99.5241,1.5215e-05,8.9e-07,0.0,0 STARLINK-5062,1 55637U 23021K   23303.92007373  .00000089  00000-0  15215-4 0  9991,2 55637  70.0012 194.8748 0002469 260.5639  99.5241 14.98326124 39856,6950.205,96.107,573.786,570.354,0.0
55637.0,STARLINK-5062,PAYLOAD,2023-10-31 02:53:18,14.98341555,0.0002463,70.0006,194.3702,268.1539,91.9338,-0.00021865,-2.702e-05,0.0,0 STARLINK-5062,1 55637U 23021K   23304.12035028 -.00002702  00000-0 -21865-3 0  9995,2 55637  70.0006 194.3702 0002463 268.1539  91.9338 14.98341555 39589,6950.157,96.106,573.734,570.31,0.0
55637.0,STARLINK-5062,PAYLOAD,2023-10-31 20:30:47,14.98311288,0.0002472,70.0008,192.5188,273.9196,86.1681,0.00034132,3.98e-05,0.0,0 STARLINK-5062,1 55637U 23021K   23304.85471751  .00003980  00000-0  34132-3 0  9990,2 55637  70.0008 192.5188 0002472 273.9196  86.1681 14.98311288 39691,6950.251,96.108,573.834,570.398,0.0
55637.0,STARLINK-5062,PAYLOAD,2023-11-01 02:55:18,14.98332585,0.0002483,70.001,191.846,263.6545,96.4332,0.00011014,1.222e-05,0.0,0 STARLINK-5062,1 55637U 23021K   23305.12174758  .00001222  00000-0  11014-3 0  9999,2 55637  70.0010 191.8460 0002483 263.6545  96.4332 14.98332585 39730,6950.185,96.107,573.776,570.324,0.0
55637.0,STARLINK-5062,PAYLOAD,2023-11-01 09:19:49,14.98358152,0.0003336,69.9998,191.1715,273.0807,86.9971,9.52e-05,1.044e-05,0.0,0 STARLINK-5062,1 55637U 23021K   23305.38876762  .00001044  00000-0  95200-4 0  9993,2 55637  69.9998 191.1715 0003336 273.0807  86.9971 14.98358152 39777,6950.106,96.105,574.289,569.652,0.0
55637.0,STARLINK-5062,PAYLOAD,2023-11-01 20:32:45,14.98344338,0.0003144,70.0006,189.9953,263.2924,96.7878,0.00022334,2.574e-05,0.0,0 STARLINK-5062,1 55637U 23021K   23305.85608756  .00002574  00000-0  22334-3 0  9997,2 55637  70.0006 189.9953 0003144 263.2924  96.7878 14.98344338 39841,6950.149,96.106,574.199,569.828,0.0
55637.0,STARLINK-5062,PAYLOAD,2023-11-01 22:08:54,14.98335149,0.0002902,70.0009,189.8264,257.5382,102.5452,7.2315e-05,7.7e-06,0.0,0 STARLINK-5062,1 55637U 23021K   23305.92285741  .00000770  00000-0  72315-4 0  9991,2 55637  70.0009 189.8264 0002902 257.5382 102.5452 14.98335149 40153,6950.177,96.107,574.059,570.025,0.0
55637.0,STARLINK-5062,PAYLOAD,2023-11-02 02:57:20,14.98315142,0.000285,70.0012,189.3206,275.8846,84.1988,9.7826e-05,1.074e-05,0.0,0 STARLINK-5062,1 55637U 23021K   23306.12315147  .00001074  00000-0  97826-4 0  9990,2 55637  70.0012 189.3206 0002850 275.8846  84.1988 14.98315142 39886,6950.239,96.108,574.085,570.123,0.0
